[
    {
        "CCSDS_OMM_VERS": "3.0",
        "COMMENT": "GENERATED VIA SPACE-TRACK.ORG API",
        "CREATION_DATE": "2025-05-04T02:26:54",
        "ORIGINATOR": "18 SPCS",
        "OBJECT_NAME": "NAVSTAR 80 (USA 309)",
        "OBJECT_ID": "2020-078A",
        "CENTER_NAME": "EARTH",
        "REF_FRAME": "TEME",
        "TIME_SYSTEM": "UTC",
        "MEAN_ELEMENT_THEORY": "SGP4",
        "EPOCH": "2025-05-03T22:29:52.356192",
        "MEAN_MOTION": "2.00558261",
        "ECCENTRICITY": "0.00580530",
        "INCLINATION": "54.0717",
        "RA_OF_ASC_NODE": "227.3810",
        "ARG_OF_PERICENTER": "200.5895",
        "MEAN_ANOMALY": "159.1584",
        "EPHEMERIS_TYPE": "0",
        "CLASSIFICATION_TYPE": "U",
        "NORAD_CAT_ID": "46826",
        "ELEMENT_SET_NO": "999",
        "REV_AT_EPOCH": "3330",
        "BSTAR": "0.00000000000000",
        "MEAN_MOTION_DOT": "-0.00000039",
        "MEAN_MOTION_DDOT": "0.0000000000000",
        "SEMIMAJOR_AXIS": "26560.820",
        "PERIOD": "717.996",
        "APOAPSIS": "20336.878",
        "PERIAPSIS": "20028.491",
        "OBJECT_TYPE": "PAYLOAD",
        "RCS_SIZE": "LARGE",
        "COUNTRY_CODE": "US",
        "LAUNCH_DATE": "2020-11-05",
        "SITE": "AFETR",
        "DECAY_DATE": null,
        "FILE": "4718307",
        "GP_ID": "286801543",
        "TLE_LINE0": "0 NAVSTAR 80 (USA 309)",
        "TLE_LINE1": "1 46826U 20078A   25123.93741153 -.00000039  00000-0  00000-0 0  9992",
        "TLE_LINE2": "2 46826  54.0717 227.3810 0058053 200.5895 159.1584  2.00558261 33306"
    }
]